[{"OBJECT_NAME":"GUOWANG GROUP 20 OBJECT J","OBJECT_ID":"2026-047J","EPOCH":"2026-03-22T12:53:07.368576","MEAN_MOTION":14.0437898,"ECCENTRICITY":9.639e-5,"INCLINATION":50.0076,"RA_OF_ASC_NODE":18.0273,"ARG_OF_PERICENTER":332.2478,"MEAN_ANOMALY":27.8375,"EPHEMERIS_TYPE":0,"CLASSIFICATION_TYPE":"U","NORAD_CAT_ID":68137,"ELEMENT_SET_NO":999,"REV_AT_EPOCH":137,"BSTAR":1.2583137e-5,"MEAN_MOTION_DOT":-1.32e-6,"MEAN_MOTION_DDOT":0},{"OBJECT_NAME":"SHIYAN-30 03","OBJECT_ID":"2026-048A","EPOCH":"2026-03-23T15:02:18.816288","MEAN_MOTION":14.91694842,"ECCENTRICITY":0.0003802,"INCLINATION":35.0004,"RA_OF_ASC_NODE":60.5258,"ARG_OF_PERICENTER":317.0709,"MEAN_ANOMALY":42.9699,"EPHEMERIS_TYPE":0,"CLASSIFICATION_TYPE":"U","NORAD_CAT_ID":68139,"ELEMENT_SET_NO":999,"REV_AT_EPOCH":158,"BSTAR":0.00023535,"MEAN_MOTION_DOT":2.386e-5,"MEAN_MOTION_DDOT":0},{"OBJECT_NAME":"SHIYAN-30 04","OBJECT_ID":"2026-048B","EPOCH":"2026-03-23T15:03:23.328576","MEAN_MOTION":14.91704668,"ECCENTRICITY":0.0002308,"INCLINATION":34.992,"RA_OF_ASC_NODE":60.5311,"ARG_OF_PERICENTER":316.0294,"MEAN_ANOMALY":44.0227,"EPHEMERIS_TYPE":0,"CLASSIFICATION_TYPE":"U","NORAD_CAT_ID":68140,"ELEMENT_SET_NO":999,"REV_AT_EPOCH":158,"BSTAR":0.00022662,"MEAN_MOTION_DOT":2.297e-5,"MEAN_MOTION_DDOT":0},{"OBJECT_NAME":"STARLINK-36604","OBJECT_ID":"2026-049A","EPOCH":"2026-03-19T13:52:52.185792","MEAN_MOTION":16.01563866,"ECCENTRICITY":5.554e-5,"INCLINATION":97.2797,"RA_OF_ASC_NODE":98.1391,"ARG_OF_PERICENTER":65.4234,"MEAN_ANOMALY":294.7104,"EPHEMERIS_TYPE":0,"CLASSIFICATION_TYPE":"U","NORAD_CAT_ID":68142,"ELEMENT_SET_NO":999,"REV_AT_EPOCH":96,"BSTAR":-0.0010855232,"MEAN_MOTION_DOT":-0.00601426,"MEAN_MOTION_DDOT":0.00012953804},{"OBJECT_NAME":"STARLINK-36995","OBJECT_ID":"2026-049B","EPOCH":"2026-03-19T06:22:43.389408","MEAN_MOTION":16.02629136,"ECCENTRICITY":9.59e-5,"INCLINATION":97.28,"RA_OF_ASC_NODE":97.7985,"ARG_OF_PERICENTER":13.3742,"MEAN_ANOMALY":346.7563,"EPHEMERIS_TYPE":0,"CLASSIFICATION_TYPE":"U","NORAD_CAT_ID":68143,"ELEMENT_SET_NO":999,"REV_AT_EPOCH":91,"BSTAR":-0.00090105,"MEAN_MOTION_DOT":-0.00531426,"MEAN_MOTION_DDOT":0.00010413},{"OBJECT_NAME":"STARLINK-37020","OBJECT_ID":"2026-049C","EPOCH":"2026-03-19T12:20:37.301568","MEAN_MOTION":16.04472428,"ECCENTRICITY":4.674e-5,"INCLINATION":97.2794,"RA_OF_ASC_NODE":98.0724,"ARG_OF_PERICENTER":166.1555,"MEAN_ANOMALY":193.9739,"EPHEMERIS_TYPE":0,"CLASSIFICATION_TYPE":"U","NORAD_CAT_ID":68144,"ELEMENT_SET_NO":999,"REV_AT_EPOCH":95,"BSTAR":0.0015013758,"MEAN_MOTION_DOT":0.00978873,"MEAN_MOTION_DDOT":0.00050884471},{"OBJECT_NAME":"STARLINK-36244","OBJECT_ID":"2026-049D","EPOCH":"2026-03-19T00:20:18.810240","MEAN_MOTION":16.04211622,"ECCENTRICITY":3.95e-5,"INCLINATION":97.2798,"RA_OF_ASC_NODE":97.5283,"ARG_OF_PERICENTER":95.7237,"MEAN_ANOMALY":264.4089,"EPHEMERIS_TYPE":0,"CLASSIFICATION_TYPE":"U","NORAD_CAT_ID":68145,"ELEMENT_SET_NO":999,"REV_AT_EPOCH":87,"BSTAR":-0.00062437,"MEAN_MOTION_DOT":-0.00404794,"MEAN_MOTION_DDOT":6.3915e-5},{"OBJECT_NAME":"STARLINK-36980","OBJECT_ID":"2026-049E","EPOCH":"2026-03-19T13:49:53.120928","MEAN_MOTION":16.02210843,"ECCENTRICITY":4.697e-5,"INCLINATION":97.2792,"RA_OF_ASC_NODE":98.1417,"ARG_OF_PERICENTER":81.7263,"MEAN_ANOMALY":278.407,"EPHEMERIS_TYPE":0,"CLASSIFICATION_TYPE":"U","NORAD_CAT_ID":68146,"ELEMENT_SET_NO":999,"REV_AT_EPOCH":96,"BSTAR":-0.0010788069,"MEAN_MOTION_DOT":-0.00620452,"MEAN_MOTION_DDOT":0.00013835533},{"OBJECT_NAME":"STARLINK-37055","OBJECT_ID":"2026-049F","EPOCH":"2026-03-19T12:21:42.575040","MEAN_MOTION":16.02010555,"ECCENTRICITY":0.0002763,"INCLINATION":97.2798,"RA_OF_ASC_NODE":98.071,"ARG_OF_PERICENTER":38.6438,"MEAN_ANOMALY":321.5038,"EPHEMERIS_TYPE":0,"CLASSIFICATION_TYPE":"U","NORAD_CAT_ID":68147,"ELEMENT_SET_NO":999,"REV_AT_EPOCH":95,"BSTAR":-0.00062842,"MEAN_MOTION_DOT":-0.00358165,"MEAN_MOTION_DDOT":4.958e-5},{"OBJECT_NAME":"STARLINK-36981","OBJECT_ID":"2026-049G","EPOCH":"2026-03-19T12:18:54.316224","MEAN_MOTION":16.00484791,"ECCENTRICITY":0.0009222,"INCLINATION":97.2791,"RA_OF_ASC_NODE":98.074,"ARG_OF_PERICENTER":123.9534,"MEAN_ANOMALY":236.2623,"EPHEMERIS_TYPE":0,"CLASSIFICATION_TYPE":"U","NORAD_CAT_ID":68148,"ELEMENT_SET_NO":999,"REV_AT_EPOCH":95,"BSTAR":-0.0087998,"MEAN_MOTION_DOT":-0.04741621,"MEAN_MOTION_DDOT":0.0076603},{"OBJECT_NAME":"STARLINK-36992","OBJECT_ID":"2026-049H","EPOCH":"2026-03-19T12:18:40.975200","MEAN_MOTION":16.03449672,"ECCENTRICITY":0.00058926,"INCLINATION":97.2794,"RA_OF_ASC_NODE":98.0748,"ARG_OF_PERICENTER":16.2793,"MEAN_ANOMALY":343.8675,"EPHEMERIS_TYPE":0,"CLASSIFICATION_TYPE":"U","NORAD_CAT_ID":68149,"ELEMENT_SET_NO":999,"REV_AT_EPOCH":95,"BSTAR":0.00090936275,"MEAN_MOTION_DOT":0.0056212,"MEAN_MOTION_DDOT":0.00014894956},{"OBJECT_NAME":"STARLINK-37060","OBJECT_ID":"2026-049J","EPOCH":"2026-03-19T12:18:16.376256","MEAN_MOTION":16.03397341,"ECCENTRICITY":0.000386,"INCLINATION":97.279,"RA_OF_ASC_NODE":98.0753,"ARG_OF_PERICENTER":339.2818,"MEAN_ANOMALY":20.8305,"EPHEMERIS_TYPE":0,"CLASSIFICATION_TYPE":"U","NORAD_CAT_ID":68150,"ELEMENT_SET_NO":999,"REV_AT_EPOCH":95,"BSTAR":0.00083559,"MEAN_MOTION_DOT":0.00514433,"MEAN_MOTION_DDOT":0.00012358},{"OBJECT_NAME":"STARLINK-37073","OBJECT_ID":"2026-049K","EPOCH":"2026-03-19T12:17:46.658976","MEAN_MOTION":16.03149567,"ECCENTRICITY":5.83e-5,"INCLINATION":97.279,"RA_OF_ASC_NODE":98.075,"ARG_OF_PERICENTER":352.5845,"MEAN_ANOMALY":7.5426,"EPHEMERIS_TYPE":0,"CLASSIFICATION_TYPE":"U","NORAD_CAT_ID":68151,"ELEMENT_SET_NO":999,"REV_AT_EPOCH":95,"BSTAR":-0.00081365,"MEAN_MOTION_DOT":-0.00494902,"MEAN_MOTION_DDOT":9.1744e-5},{"OBJECT_NAME":"STARLINK-37049","OBJECT_ID":"2026-049L","EPOCH":"2026-03-19T00:18:24.647328","MEAN_MOTION":16.04917116,"ECCENTRICITY":4.74e-5,"INCLINATION":97.2794,"RA_OF_ASC_NODE":97.5302,"ARG_OF_PERICENTER":89.6838,"MEAN_ANOMALY":270.4498,"EPHEMERIS_TYPE":0,"CLASSIFICATION_TYPE":"U","NORAD_CAT_ID":68152,"ELEMENT_SET_NO":999,"REV_AT_EPOCH":87,"BSTAR":-0.00061657,"MEAN_MOTION_DOT":-0.00417006,"MEAN_MOTION_DDOT":6.8149e-5}]
